#aV2007  5  8  0  0   .00000000      96 DD+AD WGS84 FIT  NGA
## 1426 172800.00000000   900.00000000 54228  .0000000000000
+   30     1  2  3  4  5  6  7  8  9 10 11 12 13 14 16 17 18
+         19 20 21 22 23 24 25 26 27 28 29 30 31  0  0  0  0
+          0  0  0  0  0  0  0  0  0  0  0  0  0  0  0  0  0
+          0  0  0  0  0  0  0  0  0  0  0  0  0  0  0  0  0
+          0  0  0  0  0  0  0  0  0  0  0  0  0  0  0  0  0
++         0  0  0  0  0  0  0  0  0  0  0  0  0  0  0  0  0
++         0  0  0  0  0  0  0  0  0  0  0  0  0  0  0  0  0
++         0  0  0  0  0  0  0  0  0  0  0  0  0  0  0  0  0
++         0  0  0  0  0  0  0  0  0  0  0  0  0  0  0  0  0
++         0  0  0  0  0  0  0  0  0  0  0  0  0  0  0  0  0
%c cc cc ccc ccc cccc cccc cccc cccc ccccc ccccc ccccc ccccc
%c cc cc ccc ccc cccc cccc cccc cccc ccccc ccccc ccccc ccccc
%f  0.0000000  0.000000000  0.00000000000  0.000000000000000
%f  0.0000000  0.000000000  0.00000000000  0.000000000000000
%i    0    0    0    0      0      0      0      0         0
%i    0    0    0    0      0      0      0      0         0
/*      NGA, ST. LOUIS,MO.                                  
/*   EPHEMERIS COMPUTED FROM  3 DAYS OF DATA                
/* CCCCCCCCCCCCCCCCCCCCCCCCCCCCCCCCCCCCCCCCCCCCCCCCCCCCCCCCC
/* CCCCCCCCCCCCCCCCCCCCCCCCCCCCCCCCCCCCCCCCCCCCCCCCCCCCCCCCC
*  2007  5  8 10 30   .00000000                                                 
P  1   3454.098092  14255.011739  22347.577697    125.970706                    
V  1 -27239.153671   5529.817420    626.662801       .029921                    
P  2 -11613.862996 -21850.829163   9800.123481    104.911532                    
V  2  10855.587170   7120.819151  27839.405316       .029209                    
P  3   8351.426725  13962.124389 -21228.073032     54.240674                    
V  3 -24916.088823   9291.416948  -3392.348605       .056336                    
P  4    355.600678 -18926.645630  18419.009443     10.952925                    
V  4  17678.026686  15900.738441  16294.027243       .000702                    
P  5 -15448.242155  -2034.524249  21273.600632     12.043303                    
V  5   4992.661816 -27194.382112   1165.550204      -.132329                    
P  6 -25853.587949   5853.058942   2235.500595    174.366546                    
V  6   1499.891993  -4201.831640  30936.023342       .147512                    
P  7 -24935.269762   9091.163415  -1395.976041    312.558564                    
V  7  -3175.099880  -2742.566120  31062.817634      -.166351                    
P  8  10098.937932 -11002.447361 -22058.817688   -106.519377                    
V  8  18637.716952  20500.885211  -2128.638718      -.014628                    
P  9 -21277.583903 -14818.402364   5683.592307     69.383332                    
V  9  -4035.671718  -7263.831473 -30624.183565       .015880                    
P 10  -2985.268500 -22414.347688 -13782.258260    101.569114                    
V 10   7215.746043 -16002.560637  24981.619417       .005712                    
P 11  23555.438000  10663.600314   6587.118775     15.372098                    
V 11   4289.024528   8589.865118 -28478.190243       .009697                    
P 12 -13942.063085  -6544.770142  21752.058921    -44.579639                    
V 12   7604.039840 -26276.212268  -2991.253717      -.004734                    
P 13  25754.685296  -6310.837069  -1109.324003    170.403171                    
V 13   1626.009827   1463.723677  32472.853683       .035163                    
P 14 -13750.035275  14848.708415  17239.990178     19.215705                    
V 14 -21422.354507   3698.907827 -20438.679937       .016876                    
P 16  -1468.777842  25095.630650  -8249.888567    146.130329                    
V 16  -5597.855664   9430.916472  29520.180500       .030492                    
P 17  15966.062680 -14839.055198  15098.586295     68.980831                    
V 17  19157.205132  -2535.489550 -22894.196326      -.013026                    
P 18 -16007.106062  14537.475758 -15058.613292   -250.305102                    
V 18   3737.322441 -19313.161551 -22746.630503       .007692                    
P 19  17434.796359   9388.969592 -17654.434685     32.039781                    
V 19 -21898.876340   5762.458404 -18346.287479       .034524                    
P 20  14309.792199   5725.677578  21526.426882    -24.398032                    
V 20  -7362.288921  26612.769224  -2135.435985      -.003735                    
P 21 -16675.814409   3773.332039 -20337.236480     76.552268                    
V 21 -16938.932924 -19776.842897   9589.155697       .005257                    
P 22 -11686.281638  23230.057227  -5180.440586    180.887771                    
V 22   -777.907498  -7414.484127 -30628.169805       .017326                    
P 23  24914.646906    333.765135   9397.721887    164.965985                    
V 23 -11090.118972   5002.806371  28767.427133       .025364                    
P 24 -20591.794320  -8347.636715 -14123.511209     98.633121                    
V 24 -10277.468478 -15480.614358  24075.335014       .027766                    
P 25  22347.411054  10591.389918  -9116.369704    236.366253                    
V 25   7454.426406  10014.440367  28854.283775       .276664                    
P 26 -15208.725550 -10040.306609 -19965.854876   -182.712738                    
V 26  23497.218884  -5535.136474 -14901.129226      -.205486                    
P 27  16694.915871  -3408.606613 -19796.970385    109.478175                    
V 27  18902.153646  18602.366051  12109.776278       .022226                    
P 28  12911.296802 -21122.044452  -8797.987469      1.573862                    
V 28   -658.635383  12085.439055 -29224.084348      -.008649                    
P 29 -10823.601403 -11610.085263 -21159.036067      2.520802                    
V 29  26257.155404  -7100.618684  -9084.809875       .003780                    
P 30 -16187.213947   5986.349658  19851.943705     33.202341                    
V 30   4821.342624 -25553.284139  11574.637390       .010543                    
P 31   1255.972880  19414.429802  18249.386495     19.865432                    
V 31 -17055.904244 -15194.386262  17598.986424      -.003479                    
EOF
